name,phone,email,address,region,country,numberrange
Ciara Kirk,1-121-457-4518,consequat@aol.ca,7301 Neque. St.,Free State,Mexico,4
Melodie Gould,1-512-733-4517,tortor.integer.aliquam@hotmail.com,6121 Volutpat. Rd.,Quebec,United States,8
Xander Blankenship,1-635-134-2518,aenean.eget.magna@hotmail.net,Ap #979-5006 Augue St.,North-East Region,Austria,2
Mohammad Parsons,1-706-268-3765,iaculis.aliquet.diam@google.net,5804 Mi St.,Noord Brabant,Brazil,3
Laurel Reese,1-479-619-7756,libero.morbi.accumsan@outlook.ca,148-2557 Suspendisse St.,Salzburg,Peru,8
Boris Beck,1-239-544-7144,nec@hotmail.com,7251 Nulla. Av.,Soccsksargen,Pakistan,10
Macaulay Cote,(666) 764-4381,fringilla.porttitor@google.com,211-4797 Eget Rd.,Limburg,Austria,4
"Reed Banks,(621) 990-6292,risus.quis@icloud.couk,""9834 Id, Avenue"",Zhōngnán,United Kingdom,6"
"Riley Pearson,(461) 314-7174,purus.gravida.sagittis@aol.net,""P.O. Box 443, 6407 Interdum Avenue"",Hà Giang,Singapore,6"
"Savannah Ferrell,(683) 253-7786,donec@google.org,""961-7549 Ut, Rd."",North Region,Belgium,1"
Lars Cortez,1-467-384-1435,nisi.cum@protonmail.couk,543 Cubilia Av.,Munster,Ireland,0
Jennifer Mills,1-707-118-7410,cursus@yahoo.couk,846-5779 Luctus Road,Sachsen-Anhalt,South Korea,3
Celeste Hudson,(494) 521-0031,nunc.mauris@protonmail.ca,5115 Mus. St.,Junín,Canada,8
"Irene Gallagher,1-903-336-2587,luctus@google.couk,""P.O. Box 949, 9741 Ipsum. Ave"",Tennessee,Chile,7"
"Denton Lancaster,(152) 230-8232,eget.tincidunt@protonmail.edu,""P.O. Box 554, 6351 Fermentum Street"",Limburg,South Korea,1"
"Kristen Dodson,1-663-586-7324,elit.nulla@google.net,""P.O. Box 897, 6136 Libero Street"",North Jeolla,Russian Federation,8"
Grant Coleman,1-835-683-3283,interdum.sed@protonmail.org,385-9072 Ac Avenue,Île-de-France,Russian Federation,10
Macaulay Kline,(397) 332-9278,a.malesuada.id@yahoo.ca,421-3347 Cras St.,Lima,China,2
Martha Grimes,1-516-689-9512,vel.lectus@yahoo.edu,950-2201 Euismod Rd.,Đà Nẵng,Australia,0
Gavin Marquez,(874) 635-6915,est@icloud.net,Ap #470-9271 A Avenue,Innlandet,Russian Federation,8
"Brennan Willis,(717) 973-7247,non@google.org,""Ap #453-3516 Ut, St."",Voronezh Oblast,Ireland,7"
"Sandra Lane,1-711-616-9148,ipsum.dolor@protonmail.couk,""P.O. Box 294, 3621 Leo. Avenue"",Guerrero,Norway,5"
"Callum Noble,(841) 553-7148,fusce.mollis@google.edu,""P.O. Box 618, 7436 Amet, Rd."",Västra Götalands län,Costa Rica,5"
Beck Grimes,1-517-732-5248,donec.luctus.aliquet@protonmail.couk,Ap #753-6872 Molestie Av.,Guanacaste,Turkey,1
Gemma Ross,1-529-542-3785,odio.aliquam@yahoo.net,9614 Facilisis. Street,Caraga,Mexico,2
Tad Miller,1-408-127-4537,nascetur@hotmail.net,Ap #333-6288 Fusce Ave,New Brunswick,Spain,9
Dolan Dillon,1-548-859-0331,egestas.urna.justo@hotmail.couk,Ap #976-4435 Tincidunt Street,Podlaskie,Costa Rica,5
Bradley Wilkerson,1-225-366-5353,felis.donec.tempor@hotmail.edu,5893 Aliquam Street,Zakarpattia oblast,Italy,9
"Urielle Barnett,1-448-964-2797,ornare.tortor.at@hotmail.net,""P.O. Box 374, 3517 Scelerisque Street"",Puntarenas,Philippines,0"
"Octavia Huber,(553) 166-0166,dictum.eu.placerat@protonmail.com,""P.O. Box 282, 4076 Nulla. Ave"",Vienna,Austria,3"
Madison Griffin,(624) 815-4210,neque@protonmail.couk,761-5382 Lobortis Av.,Odessa oblast,Austria,8
Erich George,1-175-638-0542,pede@hotmail.org,499-5146 Nascetur Ave,Ulster,Poland,2
Sonya Dennis,1-760-247-8637,quisque.ac@yahoo.ca,286-3343 Aliquet Avenue,Zhōngnán,Germany,2
Keegan Serrano,(912) 847-8624,tristique@google.com,Ap #745-4154 Phasellus Rd.,Gauteng,Russian Federation,7
Alexa Daniel,(548) 325-6531,sollicitudin@google.net,5932 Nibh. St.,Khyber Pakhtoonkhwa,Australia,8
Chancellor Fernandez,1-414-743-3873,magnis.dis@yahoo.ca,875-9082 Nunc Road,Ulster,Turkey,5
Dane Hunter,1-807-284-9632,molestie.arcu.sed@protonmail.ca,Ap #388-9405 Orci St.,Manitoba,Chile,6
"Nash Nicholson,(510) 517-5152,convallis@aol.edu,""P.O. Box 278, 7851 Tempus Ave"",Ivano-Frankivsk oblast,France,0"
Jacob York,(556) 531-4132,donec.tempor@google.org,Ap #970-4036 Sed Road,North Region,Pakistan,7
"Pascale Holloway,1-949-538-2363,ac.facilisis@google.couk,""P.O. Box 353, 9317 Iaculis Road"",Mecklenburg-Vorpommern,Austria,9"
Kim Roberts,1-238-355-3593,dictum@google.com,Ap #190-974 Dictum Road,Kyiv oblast,Vietnam,2
Karen Hobbs,1-548-121-6112,pharetra.sed@protonmail.org,689-2272 Ipsum Ave,Norte de Santander,Brazil,7
Anjolie Hensley,1-132-811-1291,eros.nec.tellus@yahoo.net,155-1307 Eu Road,Rogaland,Spain,1
Athena Jackson,(615) 595-7934,mus.aenean@yahoo.ca,Ap #377-594 Dictum St.,National Capital Region,Ireland,5
"Keane Molina,1-434-944-8866,aliquet.sem@hotmail.org,""9488 Lobortis, Rd."",Møre og Romsdal,Ukraine,7"
Mariko Underwood,(888) 527-8433,at.egestas.a@google.couk,1106 Aliquet St.,Ilocos Region,France,2
Ori Irwin,(237) 852-9733,pede.suspendisse@outlook.ca,206-8697 Duis Rd.,Eastern Cape,China,9
Rebekah Morris,1-102-287-3462,et.pede@hotmail.com,211-7638 Fringilla Rd.,Ulster,Pakistan,7
"Skyler Lang,1-466-432-5866,vitae.erat@icloud.ca,""P.O. Box 998, 2852 Vel Street"",Basilicata,Mexico,7"
Dahlia O'Neill,(245) 578-8245,aliquam@outlook.couk,Ap #462-210 Adipiscing Ave,Samsun,Costa Rica,3
Bradley Dudley,1-734-726-2421,et.magnis.dis@aol.org,5500 Magna. Rd.,Shetland,Peru,2
Marny Baird,1-253-473-0646,libero.proin@hotmail.org,Ap #301-4020 Tempor Rd.,Victoria,Peru,4
Ross Dalton,(953) 332-5390,risus@outlook.com,505-3654 Mauris St.,Diyarbakır,Australia,0
"Slade Mercado,1-631-926-2663,in.tincidunt@protonmail.org,""Ap #740-2535 In, Road"",Zuid Holland,Australia,4"
Elvis Butler,(492) 465-0104,erat.sed.nunc@icloud.couk,Ap #197-1508 Aenean Rd.,South Island,Turkey,2
Kelsie Gray,1-264-491-3146,vel@yahoo.couk,Ap #360-9638 Aenean Street,Munster,Canada,6
Petra Heath,(425) 258-0715,ac@yahoo.ca,Ap #181-3762 Pretium Rd.,Araucanía,Spain,4
Hall Whitehead,1-280-246-3426,fusce@protonmail.com,4198 Nulla. St.,Arequipa,Vietnam,2
"Brock Wilkerson,1-747-455-6510,dolor.sit@aol.org,""P.O. Box 363, 1115 Ridiculus Rd."",Ogun,Spain,8"
Ginger Beck,1-357-787-6121,turpis.non@protonmail.com,Ap #472-7074 Semper Ave,Perthshire,Indonesia,7
Jerome Mills,1-625-652-5481,suspendisse.sed.dolor@yahoo.edu,2903 Neque Street,Prince Edward Island,Philippines,3
Noelani Yang,1-767-178-3804,curabitur.ut@icloud.couk,668-3802 Velit. Ave,Kano,Philippines,3
Jemima Charles,1-256-851-7354,donec@aol.couk,355-8258 Luctus St.,Tripura,Vietnam,10
Kane Hansen,1-979-874-4212,sit.amet@hotmail.couk,1366 Nunc Street,Xīběi,South Korea,1
Jelani Benjamin,(742) 683-7163,commodo.at@icloud.com,738-4938 Diam Street,Brussels Hoofdstedelijk Gewest,Indonesia,5
"Constance Olsen,(253) 212-1055,pretium.aliquet.metus@aol.org,""831-3049 Scelerisque, Avenue"",Umbria,Austria,0"
Phoebe Herman,(546) 838-7575,convallis@google.net,595-520 Neque Rd.,Bình Phước,Germany,1
Gemma Knox,1-747-540-5134,habitant.morbi.tristique@google.com,6140 Faucibus Avenue,Michigan,Belgium,1
Sybil Gilliam,(503) 366-6177,auctor.mauris@yahoo.couk,998-4153 Nisl. Rd.,Wigtownshire,Canada,4
Ferris Franks,1-764-578-6387,at.fringilla.purus@yahoo.couk,Ap #589-8402 Ut Street,Vlaams-Brabant,Sweden,6
Plato Dillon,(256) 258-8813,id@yahoo.com,468-7368 Semper Ave,Pernambuco,Italy,2
Brittany Dillard,(161) 658-8666,vel.pede@protonmail.edu,Ap #827-4508 Dignissim Avenue,Aydın,Russian Federation,3
Athena Ramos,1-980-435-7938,sit@google.couk,Ap #319-2252 Gravida. Road,Missouri,Belgium,3
Bruno Knowles,1-683-250-9264,sit.amet@icloud.edu,8013 Feugiat Av.,Guanacaste,United Kingdom,1
Alan Fowler,(227) 222-4785,hendrerit.consectetuer@icloud.couk,Ap #919-5435 In Av.,Loreto,Sweden,6
"Alfreda Boyd,(817) 644-5421,donec.tempus.lorem@aol.net,""P.O. Box 473, 4450 Donec Rd."",Azad Kashmir,Netherlands,2"
"Maxwell Burton,1-564-158-0246,cras.lorem@outlook.com,""P.O. Box 790, 4349 Turpis Street"",Zuid Holland,Netherlands,3"
Hedwig Sykes,1-285-543-9320,non.lobortis.quis@google.ca,Ap #302-1957 Rhoncus. Av.,West Java,Vietnam,6
"Larissa Trevino,(518) 785-9730,at.arcu@icloud.edu,""P.O. Box 908, 7893 Praesent St."",Aragón,Brazil,9"
"Violet Tyson,(319) 823-6107,cum@hotmail.net,""P.O. Box 114, 4348 Dolor. Rd."",Huáběi,Russian Federation,2"
"Halee Floyd,1-778-429-1718,in.mi@outlook.ca,""4391 Ac, Avenue"",Ogun,Mexico,8"
Hammett Brewer,(620) 449-3777,semper.cursus@yahoo.ca,Ap #619-124 Felis Avenue,Connacht,Poland,2
Hedley Jennings,(636) 855-9575,augue@outlook.ca,401-9287 Tempus Road,South Island,India,0
Brenden Yates,(406) 435-7616,felis.donec@hotmail.net,Ap #117-9342 Amet Ave,Hamburg,Belgium,5
Blossom Sawyer,(680) 907-6338,malesuada.fringilla@icloud.org,862-4741 Pede. Ave,Tyrol,Chile,9
"Haley Wade,1-838-555-6618,sodales.at.velit@aol.org,""813-5175 Felis, Road"",Salzburg,South Africa,7"
Nerea Alford,1-271-372-1525,porttitor.interdum@hotmail.couk,774 Nisi. St.,Khyber Pakhtoonkhwa,Nigeria,3
Baxter Tran,1-222-733-5730,non.arcu@icloud.couk,Ap #833-5979 Pellentesque Ave,Washington,Spain,6
Yvonne Mitchell,(853) 568-3285,et.arcu@protonmail.ca,Ap #185-4198 Dui Street,Bali,India,3
Angela Barton,1-845-786-5398,pretium.aliquet@aol.couk,Ap #193-7944 Mauris Avenue,KwaZulu-Natal,France,9
Eleanor Roman,1-686-393-5622,ut.semper@icloud.couk,2683 Quisque Avenue,Lambayeque,Italy,7
Brooke Crawford,1-174-862-3345,non.bibendum@protonmail.net,Ap #723-8725 Ante. Rd.,Xīnán,Canada,7
Howard Good,(585) 292-1865,nisl.maecenas@hotmail.couk,Ap #839-3435 Egestas. Rd.,Zeeland,United States,8
Justine Witt,(312) 372-5812,in.hendrerit@protonmail.net,Ap #166-5449 Neque St.,Guerrero,South Korea,5
Noelani Roy,(353) 115-8324,consequat.nec@outlook.couk,Ap #744-3269 Sodales Road,Alberta,Sweden,6
Plato Nelson,1-253-464-4388,dolor.donec@protonmail.net,348-839 Maecenas Road,Azad Kashmir,Germany,6
"Bernard Solis,1-434-614-7673,ante.dictum@yahoo.com,""Ap #445-6072 Adipiscing, St."",Lampung,Spain,3"
"Calista Marshall,1-243-617-6683,mauris@aol.com,""724-7010 Aliquet, St."",Eastern Cape,India,3"
Lavinia Mcfarland,(678) 997-4638,quis.diam.luctus@protonmail.couk,160-8825 Sit Ave,Aceh,Vietnam,6
Gail Shields,(277) 341-7326,justo.proin.non@icloud.edu,Ap #765-8295 A Road,Kaluga Oblast,Netherlands,9
Vanna Patterson,(412) 446-2764,mauris.eu@yahoo.couk,669 Ac Street,North West,South Africa,8
Keane Kelly,1-328-317-4183,diam@outlook.net,519-8949 Enim Rd.,Piemonte,Brazil,7
"Candice Michael,(797) 372-4122,blandit.enim.consequat@outlook.org,""814-2187 Nec, Avenue"",Gauteng,Nigeria,5"
"Howard Ferguson,1-870-463-2812,augue@hotmail.com,""Ap #429-1362 Id, Av."",North Jeolla,Chile,7"
Jamal Bridges,1-288-883-3012,lacus.nulla@yahoo.com,Ap #572-2414 Nam St.,Oyo,Germany,5
Amethyst Nixon,1-622-299-8732,ligula.aenean@protonmail.net,9568 Fermentum Av.,Australian Capital Territory,Poland,5
Nomlanga Pate,1-540-876-1469,laoreet.posuere.enim@aol.net,Ap #408-6414 Praesent Av.,Adana,Austria,1
"Lavinia Cline,(462) 883-8342,sociosqu.ad@hotmail.com,""P.O. Box 444, 9687 Odio. Rd."",Victoria,France,6"
Maxwell Sparks,1-671-352-2717,orci.adipiscing@aol.org,3736 Justo. St.,Saskatchewan,Poland,4
"Noble Rosa,1-556-381-1581,rutrum.lorem@aol.org,""571-3592 Amet, St."",Central Region,Italy,6"
Luke Jimenez,1-693-663-3714,ut@outlook.edu,229-1306 Imperdiet Road,Arequipa,India,4
Daria Henson,1-888-623-9608,lacus.ut@outlook.couk,Ap #525-4636 Lorem Rd.,An Giang,Mexico,3
Jeremy Knapp,1-506-351-8412,lobortis.quis.pede@hotmail.couk,7992 Est St.,Caraga,Australia,1
Jakeem Powell,(419) 579-6887,condimentum@outlook.com,Ap #222-2114 Phasellus Rd.,Zhōngnán,Vietnam,2
Mira Beasley,1-455-159-6358,suspendisse.commodo@google.ca,4699 Cursus. Rd.,Pomorskie,Philippines,7
Raymond Fisher,(814) 877-4141,venenatis.lacus@protonmail.ca,Ap #630-1213 Malesuada. St.,North Chungcheong,United Kingdom,9
"Hammett Combs,(119) 750-4879,dolor.vitae.dolor@protonmail.com,""P.O. Box 242, 1101 Urna. St."",Nagaland,Italy,9"
Jeanette Lloyd,(241) 225-7347,eu@icloud.org,466-1360 Enim. Ave,Ohio,Italy,5
Aphrodite Workman,1-259-344-1658,enim.curabitur@hotmail.couk,Ap #295-5106 Id Street,Limón,Sweden,2
Colin Zimmerman,(655) 241-3033,tempus@hotmail.org,733-732 Sem Av.,Kurgan Oblast,Philippines,10
"Hayden Watson,1-320-464-3046,curabitur.egestas@icloud.org,""P.O. Box 980, 8246 Metus. Road"",East Java,Poland,10"
Reed Benton,(538) 398-5806,parturient.montes@google.com,Ap #371-5054 Ipsum Street,Veneto,Vietnam,2
Delilah Gilbert,1-634-771-0313,elit.elit@icloud.couk,642-8373 Malesuada Rd.,San José,Ireland,3
Fallon Zimmerman,(377) 734-8226,id@hotmail.org,784-1342 Suspendisse Street,Madrid,South Africa,5
Gregory Warren,1-395-821-4142,mollis@google.org,832-8313 Dictum St.,Nebraska,Vietnam,5
"Pandora Morin,(398) 627-7107,in.aliquet.lobortis@google.couk,""P.O. Box 897, 6223 Vestibulum Street"",Ancash,Spain,3"
Ava Lamb,(367) 458-3422,vitae@outlook.edu,Ap #328-7248 Aliquet. Rd.,Prince Edward Island,Colombia,4
"Brian Wood,(497) 366-4236,sed.facilisis@icloud.com,""P.O. Box 860, 3223 Integer Street"",Antalya,New Zealand,1"
Dorian Elliott,(300) 331-3783,lacus.varius.et@yahoo.edu,Ap #116-3074 Aliquet. Rd.,Anambra,Singapore,3
Yeo Russell,1-556-274-3233,amet.lorem@icloud.couk,157-9072 Parturient St.,Tarapacá,Netherlands,4
Adam Richmond,(124) 507-4781,natoque.penatibus@outlook.edu,Ap #228-8100 Nunc. Av.,Vestland,United Kingdom,2
Damian Ochoa,1-407-568-7865,risus@aol.net,596-828 Parturient Street,Tyrol,United States,9
"Mara Mckee,1-745-502-6702,lorem.eu@icloud.org,""144-5263 Elit, Ave"",Tamaulipas,Ireland,10"
Chadwick Stark,1-782-867-2794,augue.scelerisque@yahoo.edu,6030 Vitae Street,East Region,South Korea,9
Yuli Cruz,(212) 623-5881,nullam.suscipit@yahoo.ca,181-8056 Diam. St.,Limón,Peru,6
Maia Combs,1-872-177-1485,mauris@icloud.edu,418-2280 Lacinia St.,Dōngběi,New Zealand,3
"Thor Levine,(626) 313-0773,lorem@yahoo.edu,""Ap #159-6439 Orci, Avenue"",Minas Gerais,Ukraine,5"
Ian Goodwin,1-683-226-7179,donec.nibh@hotmail.net,Ap #577-4679 Mi. St.,North Island,China,1
"Giselle Macdonald,(657) 875-4215,fringilla.est@aol.ca,""P.O. Box 996, 1901 Ac Street"",Aisén,France,6"
"Tyrone Rosa,(146) 564-2441,justo.eu@hotmail.edu,""Ap #806-6564 Mauris, Avenue"",Drenthe,Canada,1"
"Warren Kidd,(157) 754-5677,dolor.fusce.mi@hotmail.edu,""Ap #820-1605 Lorem, St."",Khyber Pakhtoonkhwa,Norway,9"
"Clementine Sweet,1-939-341-7884,fringilla.porttitor@google.com,""281-2377 Ut, Ave"",Mpumalanga,India,6"
Adrian Lowe,1-651-958-7375,mollis@outlook.com,Ap #108-2095 Morbi Rd.,Ulyanovsk Oblast,India,5
"Carissa Burch,1-731-724-2881,duis.dignissim@aol.edu,""537-1951 Elit, Avenue"",Ulster,France,4"
"Abigail Estrada,(438) 757-8775,penatibus.et@google.edu,""577-3288 Non, Rd."",Vienna,Australia,9"
"Maxwell Mcconnell,(346) 648-2740,felis.donec@icloud.org,""8323 Vulputate, Av."",East Java,Mexico,5"
"Marny Sosa,1-567-441-5491,imperdiet.ullamcorper@protonmail.net,""P.O. Box 446, 1176 Maecenas Rd."",Tasmania,Austria,6"
Halee Johns,(821) 922-4677,erat.volutpat@yahoo.ca,727-9201 Quis Road,Balochistan,Philippines,10
"Riley Valdez,(657) 813-8851,lorem.fringilla.ornare@icloud.ca,""P.O. Box 209, 3055 Dictum Avenue"",Tasmania,Mexico,2"
"Sandra Black,1-593-485-3457,egestas.fusce.aliquet@google.org,""Ap #200-8650 Ullamcorper, Rd."",Styria,Indonesia,2"
Yuli Nichols,(825) 475-5751,ultrices@yahoo.com,396-9201 At Street,Kurgan Oblast,Spain,5
"Alexander Vincent,(869) 947-2658,a.facilisis@hotmail.com,""P.O. Box 455, 7839 Lobortis Ave"",Agder,Philippines,10"
Aurora Mcdonald,(586) 841-2003,tincidunt.nibh@google.org,Ap #535-532 Sem. Av.,Mecklenburg-Vorpommern,Germany,4
Allegra Anderson,(166) 277-7576,dui.quis@protonmail.org,349-914 Gravida Rd.,Huáběi,Peru,6
Emily Fitzgerald,1-234-471-8374,parturient.montes@google.net,640-9929 Etiam Rd.,Hamburg,Ireland,9
Serena Castro,1-188-731-0707,nunc.ut.erat@protonmail.edu,Ap #944-1075 Erat St.,Nizhny Novgorod Oblast,China,7
"Harper Joyce,1-335-456-8418,augue.malesuada.malesuada@yahoo.net,""Ap #341-7652 Convallis, Rd."",Bayern,Singapore,9"
"Byron Gallagher,(469) 552-8115,elementum.purus.accumsan@aol.com,""529-4645 Vel, Rd."",Emilia-Romagna,Austria,9"
Avram Brady,(422) 344-2155,conubia@hotmail.couk,233-5748 Phasellus St.,Azad Kashmir,Spain,7
Oprah Wallace,(724) 637-3931,est.congue.a@aol.com,3824 Porttitor Rd.,Sindh,India,6
"Quon Contreras,1-247-103-1322,tristique.pellentesque.tellus@hotmail.org,""P.O. Box 544, 301 Tristique Ave"",Puno,Peru,5"
"Celeste Hodge,(388) 528-7438,arcu.morbi@google.net,""P.O. Box 837, 7699 Imperdiet Rd."",Northwest Territories,Brazil,6"
"Raja Holland,1-455-143-4905,vulputate.lacus@google.net,""P.O. Box 138, 7126 Dis St."",Guanacaste,India,9"
Fuller Ramirez,1-564-556-5959,egestas.fusce@protonmail.org,Ap #849-5261 Fermentum Av.,Arizona,Sweden,8
"Buffy Dillon,1-738-567-3997,pellentesque.sed@aol.net,""Ap #393-5861 Montes, St."",Rio de Janeiro,Russian Federation,8"
Kibo Frederick,(385) 234-3707,egestas.rhoncus@hotmail.net,3932 Quis Avenue,Vĩnh Long,Canada,7
Jorden Spears,(808) 365-5001,sed.diam@outlook.org,Ap #904-9849 Feugiat. Avenue,Vestfold og Telemark,Austria,7
"Sage Mcclain,1-868-558-3783,lacus@outlook.ca,""370-5920 Nec, Road"",Rio Grande do Sul,Ukraine,7"
"Melvin Flynn,1-371-206-3121,vulputate.risus.a@yahoo.edu,""P.O. Box 582, 3045 Amet Avenue"",Dadra and Nagar Haveli,Australia,7"
Jared Savage,1-871-230-9294,donec@icloud.net,Ap #712-2941 Dis Avenue,Upper Austria,Sweden,5
"Madison Wall,(328) 674-8881,diam@protonmail.edu,""P.O. Box 448, 5913 Imperdiet Rd."",Nova Scotia,Turkey,8"
Adria Joyner,1-466-773-8836,sit@protonmail.ca,Ap #324-1659 Nec Road,Lorraine,Vietnam,5
Keaton Sosa,1-625-787-6624,erat@hotmail.ca,Ap #757-2531 Eu Rd.,Manitoba,Vietnam,3
Raya Cash,(265) 335-3632,aliquam.gravida@icloud.org,Ap #851-904 Dapibus Rd.,Rio Grande do Sul,Poland,6
Cheyenne Goodwin,1-775-342-8737,nec.mollis@protonmail.edu,1905 Arcu. Av.,Poltava oblast,Indonesia,6
Jacqueline Bruce,1-288-189-1797,elementum.sem@icloud.org,Ap #523-8423 Ipsum. Rd.,Extremadura,Ukraine,9
"Andrew Ortiz,(560) 858-3593,ac.libero.nec@aol.org,""Ap #701-3830 Tellus, Rd."",Dōngběi,Sweden,6"
Lacota Richardson,1-422-320-5781,lorem.ac@hotmail.edu,Ap #779-5647 Orci Road,South Sulawesi,Australia,4
Alfonso Robbins,(907) 561-6749,amet.metus.aliquam@hotmail.net,Ap #177-822 Eros. Road,Galicia,China,4
"Rinah Adkins,(784) 426-6775,arcu.vel@hotmail.com,""P.O. Box 813, 3936 Erat, Street"",Cheshire,Colombia,4"
Fritz Whitaker,1-712-421-5124,feugiat.metus@outlook.org,664-7086 Nunc Street,Pernambuco,Sweden,1
Kaitlin Nguyen,(766) 953-4765,quis.accumsan.convallis@aol.ca,299-5551 Elementum Road,West Region,Singapore,2
Owen Le,1-198-275-2112,tempor.bibendum@yahoo.ca,1679 Dignissim Av.,Vlaams-Brabant,Singapore,1
Maxine Robertson,(591) 584-2318,ac.facilisis@yahoo.com,Ap #167-5471 Quisque St.,Zeeland,Philippines,1
Holmes Bender,(770) 251-4287,vel.vulputate@aol.couk,958-4090 Enim. Street,Bangsamoro,Italy,5
"Hoyt Castaneda,(277) 277-5431,varius@yahoo.couk,""P.O. Box 991, 9706 Tellus Avenue"",Ivano-Frankivsk oblast,France,6"
"Lee Howard,(156) 474-5367,pede@google.org,""P.O. Box 171, 5998 Fusce Rd."",Limburg,South Korea,2"
Lars Mathews,(279) 670-1576,semper@icloud.net,6104 Malesuada Av.,Irkutsk Oblast,Costa Rica,8
"Kyle Bernard,(477) 615-2876,semper.erat.in@hotmail.edu,""P.O. Box 575, 5236 Aliquet, Rd."",Cagayan Valley,Turkey,3"
Wesley Baker,(672) 916-3331,maecenas.iaculis@outlook.couk,2439 Sit Ave,Connacht,Germany,1
Richard Greene,1-474-828-7800,pellentesque.sed.dictum@aol.couk,184-9826 Tincidunt Road,Flevoland,Ireland,9
Xyla Parker,(790) 370-6661,dolor.quisque.tincidunt@hotmail.net,Ap #368-5008 Sit St.,Norfolk,Italy,1
Brady Thompson,(815) 535-2788,per@yahoo.ca,4275 Ac Ave,La Rioja,Australia,10
Aileen Rosales,(759) 364-2212,erat@yahoo.com,988-2374 Quisque St.,Cartago,Netherlands,0
Beck Mcguire,(769) 382-1043,semper.pretium@aol.ca,214-6905 Quis Av.,Nova Scotia,Mexico,2
"Ava Cervantes,(115) 741-1455,felis.orci@outlook.net,""P.O. Box 988, 6418 Nisl. St."",Berlin,Belgium,3"
Hop Mcguire,(456) 456-1680,lacinia.vitae@yahoo.couk,Ap #139-1826 Sed St.,Balochistan,Ukraine,8
Willa Strickland,(887) 536-6992,fringilla.purus@outlook.org,546-4337 Imperdiet Road,Victoria,Pakistan,8
Tanek Holloway,1-222-359-6994,libero.est@hotmail.com,Ap #874-3938 Ac Road,Aisén,China,1
Ulla Keller,(529) 817-6051,suspendisse.sed.dolor@yahoo.couk,Ap #718-7952 Dolor. Rd.,Cartago,Sweden,3
Levi Martinez,(627) 545-1344,sagittis.duis@outlook.org,8124 Quis Avenue,Burgenland,Poland,9
Abdul Nixon,(715) 423-5343,hendrerit.consectetuer@icloud.com,2500 Libero St.,North-East Region,Sweden,7
"Branden Reid,1-898-199-4022,dictum.eu@outlook.org,""Ap #952-9666 Sed, St."",Noord Brabant,Canada,8"
"Tamara Mann,(915) 351-2511,est.mauris.eu@yahoo.edu,""P.O. Box 429, 6389 In Street"",Munster,Belgium,4"
Whoopi Moran,1-764-274-8874,sed.hendrerit@yahoo.couk,714-5506 Sapien Av.,Ivanovo Oblast,Canada,9
Thor Floyd,(518) 641-1601,aliquam@protonmail.com,177-1979 Elit. Rd.,Jalisco,Russian Federation,2
Neville Whitehead,1-710-745-5160,quisque.imperdiet.erat@icloud.ca,672-7456 Phasellus Av.,Gilgit Baltistan,China,8
"Jenna Campos,1-545-254-6918,morbi.quis.urna@hotmail.net,""P.O. Box 727, 4931 Curabitur Ave"",Gävleborgs län,United States,3"
Abbot Myers,(247) 994-8227,vulputate.posuere.vulputate@icloud.net,917-1781 Nec Ave,Marche,Indonesia,2
Sage Graham,(921) 514-0112,justo.eu@protonmail.couk,4169 Eu Rd.,Ulster,Singapore,4
Conan Garrett,(942) 327-1666,feugiat.non.lobortis@icloud.ca,745-598 Sit Ave,San Andrés y Providencia,Costa Rica,7
Nita Hines,(842) 674-8439,sem@yahoo.edu,4906 Arcu. Rd.,Araucanía,South Africa,2
Stacy Sharp,1-838-659-5463,nibh@icloud.ca,Ap #609-116 Ac Ave,Vinnytsia oblast,Colombia,5
"Germane Boyle,(829) 649-5386,consectetuer.adipiscing@icloud.com,""P.O. Box 210, 2240 Sed Ave"",Cantabria,Russian Federation,6"
Plato Conrad,(959) 395-9320,suscipit.est.ac@icloud.couk,6448 Eros. Rd.,Banffshire,Brazil,8
"Amal Barrera,1-304-558-2131,magna@aol.edu,""Ap #776-3063 Sem, Rd."",North Island,Colombia,8"
Hillary Thomas,(942) 615-7202,ipsum.nunc@google.org,672-8829 Vitae Street,Gauteng,China,8
Steel Bridges,(548) 587-8336,mauris@protonmail.couk,Ap #471-5380 A Street,Cagayan Valley,Canada,5
"Gregory Beck,(352) 410-6755,accumsan.interdum@outlook.net,""Ap #385-1874 Non, Ave"",North Chungcheong,France,2"
"Molly Middleton,1-777-675-0435,libero@aol.com,""677-9096 Vitae, Street"",Zuid Holland,Ireland,4"
Abigail Love,(689) 525-5847,molestie@outlook.com,Ap #846-1525 Pellentesque Rd.,Östergötlands län,Vietnam,10
Thomas Compton,(565) 138-0546,malesuada.id@protonmail.couk,Ap #276-8043 Lacus. Rd.,Lambayeque,South Africa,7
"Mannix Mcclure,1-553-563-3896,gravida.molestie.arcu@outlook.net,""P.O. Box 555, 4310 Lectus Rd."",San Luis Potosí,Italy,4"
"Tana Pace,1-917-373-1317,amet.consectetuer.adipiscing@icloud.edu,""P.O. Box 940, 5786 Urna Ave"",Alsace,Singapore,6"
Noah Morales,(414) 492-8886,libero.morbi.accumsan@icloud.ca,533-6838 Gravida. Road,Cordillera Administrative Region,Mexico,6
"Carson Clements,1-311-717-8578,aliquam.nisl@outlook.couk,""P.O. Box 210, 4758 Hendrerit. Street"",São Paulo,Russian Federation,8"
Jordan Rush,1-597-676-7764,vitae.nibh@icloud.edu,172-4936 Mauris Rd.,Nghệ An,Philippines,4
Zane Spence,(841) 745-7835,vestibulum.lorem.sit@hotmail.net,Ap #328-7656 Neque St.,Tarapacá,Ireland,0
"Micah Hoover,1-444-527-4423,ac@aol.com,""489-5506 Dui, Av."",Møre og Romsdal,Ireland,3"
Rafael Garza,(327) 214-1198,etiam.laoreet.libero@aol.ca,Ap #617-6420 Pellentesque Ave,Leinster,Poland,1
Tobias Gomez,1-355-983-1703,maecenas.malesuada.fringilla@protonmail.ca,5881 Donec Rd.,Florida,South Africa,9
Phyllis Horton,1-644-737-1534,tellus.sem@yahoo.edu,842-6751 Cras St.,Uttar Pradesh,Norway,7
Germane Watkins,1-281-777-2865,gravida@hotmail.couk,397-5997 Sed Avenue,Lagos,France,1
"Evan Roberts,1-393-711-6388,malesuada.malesuada.integer@yahoo.net,""P.O. Box 431, 2116 Nullam Road"",South Jeolla,Turkey,5"
Phelan Madden,1-975-856-1874,interdum.feugiat@outlook.net,Ap #555-7008 Donec Avenue,Carinthia,South Africa,4
Nelle Marsh,(519) 895-3118,congue.elit@protonmail.org,557-4525 Nunc Avenue,Andalucía,Vietnam,4
"Hop Trujillo,(591) 387-6738,ridiculus.mus@hotmail.com,""P.O. Box 945, 7352 Mollis Rd."",Adana,China,4"
Griffith Barker,(362) 829-1124,est.ac@yahoo.edu,7414 Et Road,Chernivtsi oblast,Ukraine,2
Madeson Pitts,1-296-939-2753,id.nunc.interdum@protonmail.net,3999 Leo. Avenue,Kaduna,Vietnam,9
"Brenden Baird,(254) 444-8448,aliquet.diam@icloud.org,""P.O. Box 975, 7793 Bibendum. St."",Alajuela,United Kingdom,8"
Raja Acevedo,(727) 351-7923,risus.donec.nibh@google.com,Ap #184-3932 Sapien. Street,Piemonte,Canada,5
Nathan Blanchard,1-643-536-2401,tristique@icloud.edu,Ap #146-1460 Velit Rd.,South Australia,Spain,9
Erich Summers,1-540-773-2553,interdum.nunc.sollicitudin@outlook.com,3029 Gravida. Avenue,Andalucía,China,9
"Raven Roach,(924) 394-1512,nec.mauris.blandit@google.net,""Ap #264-6064 Et, Rd."",Akwa Ibom,South Africa,2"
Danielle Gaines,(268) 533-2728,sem.nulla.interdum@google.couk,866-2460 Curae Rd.,Leinster,Philippines,1
Neville Weiss,1-987-423-8985,quam.curabitur.vel@yahoo.com,Ap #692-9304 Aliquam Street,Lakshadweep,Ukraine,7
Christian Wynn,(733) 254-1242,nullam.enim@outlook.ca,309-9279 Mollis Rd.,Lombardia,Philippines,9
Brody Preston,1-311-468-5725,lorem.ipsum@protonmail.couk,9099 Quis Street,Connacht,Philippines,9
Mariam Gilmore,(518) 757-0865,mauris.ipsum.porta@outlook.edu,535-9246 Est Ave,Troms og Finnmark,United Kingdom,6
Shad Little,(484) 466-7115,nec.ante@icloud.couk,Ap #739-9449 Mi. Av.,Jigawa,Spain,9
"Leandra Colon,(365) 185-6407,quam.pellentesque@outlook.net,""P.O. Box 654, 9382 Fermentum Av."",Sindh,South Korea,4"
"Echo Joyce,1-534-165-2611,elit.pharetra.ut@outlook.com,""P.O. Box 325, 2762 Sed St."",Berlin,Belgium,9"
Wanda Sutton,(946) 154-1652,pede.nonummy.ut@outlook.couk,560-167 Auctor Avenue,West Region,Norway,9
"Mannix Solomon,1-921-723-3235,rutrum.magna.cras@protonmail.org,""429-6277 Id, Street"",Connacht,Colombia,3"
"Nicholas Joseph,(213) 636-1578,vivamus@yahoo.org,""P.O. Box 620, 4500 Sodales Ave"",Sơn La,Nigeria,5"
"Demetria Alford,(742) 354-2735,purus.sapien@outlook.org,""P.O. Box 682, 932 Diam. Avenue"",Heredia,India,3"
"Dominic Hahn,1-583-775-2933,eget@aol.edu,""P.O. Box 780, 8850 Eget Rd."",Australian Capital Territory,Vietnam,9"
Kiona Hart,1-553-554-3373,consectetuer.cursus@yahoo.net,669-3067 Arcu. Rd.,FATA,Philippines,8
Zena Patterson,1-790-413-4513,pellentesque.sed.dictum@yahoo.ca,Ap #696-6481 Morbi Rd.,Antwerpen,United Kingdom,5
"Daphne Wolfe,(864) 522-1580,vel.turpis.aliquam@protonmail.couk,""P.O. Box 702, 1803 Magna. Avenue"",Samara Oblast,Vietnam,6"
Ori Knox,1-552-527-8457,at.egestas@aol.ca,Ap #928-7934 Suspendisse Rd.,Gilgit Baltistan,Belgium,1
"Keaton Blackwell,(661) 312-4722,vel.venenatis.vel@icloud.org,""741-6193 Dui, Road"",Borno,Sweden,4"
"Tashya Mooney,1-286-636-9505,arcu.iaculis@google.org,""P.O. Box 921, 5881 Blandit Rd."",Munster,Norway,1"
"Caleb Garcia,(589) 963-1526,nunc.sed@aol.net,""9856 Laoreet, St."",Baja California,United States,2"
Adrian Moreno,(678) 562-7827,sem.vitae@google.net,676-3006 Accumsan Road,Riau Islands,South Africa,3
Cassandra Sherman,1-644-377-5665,ultrices.duis@yahoo.couk,Ap #409-9302 Enim St.,FATA,Singapore,0
TaShya Lindsay,(542) 386-6882,in@yahoo.com,985-1609 Donec Avenue,Montgomeryshire,Singapore,3
Quynn Buckner,1-818-761-8878,bibendum.ullamcorper@protonmail.org,942-5384 Fusce St.,Balochistan,Poland,8
"Sigourney Dickson,(440) 192-5597,quisque.nonummy@protonmail.org,""P.O. Box 879, 4024 Orci Ave"",Anambra,Brazil,9"
Oliver Martinez,(889) 663-5333,a.auctor.non@hotmail.couk,762-6477 Accumsan St.,Östergötlands län,Mexico,5
"Jennifer Patterson,(271) 184-6038,senectus.et@icloud.couk,""P.O. Box 622, 8474 Dui Rd."",Donetsk oblast,Costa Rica,3"
Gillian Gardner,(473) 886-2966,eu.metus@hotmail.couk,Ap #810-7707 Massa. Street,Xīběi,Russian Federation,8
"Mannix Lamb,(632) 261-3427,a.facilisis.non@hotmail.net,""P.O. Box 970, 6010 Tortor, St."",Casanare,United States,3"
"Samuel Banks,(507) 746-6732,aliquam@hotmail.couk,""P.O. Box 307, 4014 Vitae Avenue"",Zachodniopomorskie,Germany,1"
"Xanthus Mcdowell,1-586-698-1666,dapibus.quam@protonmail.edu,""P.O. Box 840, 8928 Morbi Rd."",Cartago,United Kingdom,3"
"Nomlanga Powell,(350) 783-2871,arcu@yahoo.couk,""P.O. Box 734, 7292 Nec, Avenue"",Ogun,Spain,9"
Alexa Chase,(207) 264-4246,nunc.sollicitudin.commodo@yahoo.ca,Ap #633-9272 Ridiculus Ave,Cesar,Poland,7
Stone Sexton,1-330-436-1412,amet.dapibus@icloud.net,657-4329 Pede. St.,Ulster,Norway,5
"Tiger Holcomb,1-625-338-2235,tempus.risus.donec@yahoo.couk,""P.O. Box 979, 9912 Enim. St."",Coquimbo,Germany,2"
Cole Cole,(646) 243-0361,tincidunt.pede@icloud.org,513-6448 Aliquam Av.,Jeju,Canada,8
Garth Delgado,1-183-125-1381,bibendum.ullamcorper@yahoo.net,Ap #477-567 Neque. Avenue,Magallanes y Antártica Chilena,France,9
Travis Hartman,(480) 743-4155,malesuada.id.erat@yahoo.edu,Ap #458-7133 Nec Road,Goiás,India,2
Melissa Cannon,1-778-950-8182,nisi@hotmail.net,382-1816 Accumsan Street,Oost-Vlaanderen,Australia,8
Nigel Flynn,(362) 652-8416,aenean.gravida@hotmail.couk,426-5585 Vel Rd.,Cajamarca,Canada,3
Hoyt Hunter,(546) 783-8157,sit.amet.luctus@hotmail.edu,Ap #160-5156 Curae Street,Caraga,South Africa,6
Whilemina Francis,(207) 819-1058,ultricies.sem.magna@yahoo.com,Ap #437-1400 Egestas Av.,South Island,Pakistan,9
Duncan Carroll,(846) 143-6163,amet.diam@outlook.org,Ap #996-5689 Fames Rd.,Kaluga Oblast,United Kingdom,2
Randall Schmidt,(628) 703-5307,varius@hotmail.couk,274-9791 Donec Av.,Balıkesir,France,8
Cassidy Gill,1-857-548-5814,risus.duis@aol.ca,Ap #630-6930 Cras Av.,Uttarakhand,Germany,4
Lester Coleman,(299) 621-2323,vestibulum@outlook.com,619-4262 Sed Street,San Andrés y Providencia,Ireland,4
Allistair Morton,1-838-555-7870,laoreet.libero@protonmail.net,Ap #689-591 Nec Road,Huáběi,China,2
Lani Burke,1-585-747-7141,mauris.sapien@google.net,8740 Eget Rd.,Luik,Belgium,7
Jenna Harding,1-388-740-1830,lobortis.risus@outlook.ca,685-7464 In Rd.,Trentino-Alto Adige,New Zealand,5
"Brian Avery,1-523-802-0325,pellentesque.a.facilisis@protonmail.com,""P.O. Box 850, 9715 Velit Avenue"",Dalarnas län,Pakistan,6"
Rana Harper,1-963-821-3373,a.sollicitudin@icloud.org,Ap #176-3204 Elementum Avenue,Podkarpackie,Spain,9
"Burton Palmer,1-769-842-6174,dolor.nulla.semper@hotmail.ca,""P.O. Box 328, 4696 A St."",Central Visayas,France,6"
Adara Perry,1-658-388-3226,feugiat.tellus.lorem@hotmail.org,Ap #697-3201 Eu St.,Western Cape,Indonesia,7
Boris Christian,(448) 378-9096,cursus.nunc@aol.ca,678-984 Sed Avenue,Ontario,Russian Federation,3
Janna Garrison,(414) 745-4817,vel.pede.blandit@outlook.ca,2005 Consequat Rd.,Punjab,South Africa,6
Callum Blanchard,(966) 572-2438,fermentum.vel@protonmail.edu,Ap #334-4419 Massa Av.,Flevoland,Austria,9
Hermione Walsh,(873) 208-4352,sed.pede@aol.ca,880-5505 Risus. Rd.,Connacht,Belgium,0
Halee Grimes,(636) 468-5806,class.aptent@icloud.org,824-4648 Quisque Ave,Querétaro,Sweden,1
Indigo Buchanan,1-341-729-0279,erat.neque.non@yahoo.edu,982-6404 Posuere Avenue,O'Higgins,Netherlands,1
Deacon Brooks,(257) 651-6725,cursus@yahoo.com,803-2647 Sagittis. Rd.,Gyeonggi,Belgium,0
Pascale Witt,(892) 128-9536,et.malesuada@hotmail.edu,674-1605 Adipiscing Road,Pernambuco,Sweden,4
Guinevere Bentley,(477) 369-3742,fringilla.donec@yahoo.org,Ap #343-3659 Etiam Ave,Innlandet,Belgium,7
Irma Lyons,(300) 114-7144,facilisis.lorem.tristique@aol.net,3582 Tellus Ave,Östergötlands län,France,5
Penelope Cervantes,1-421-626-4817,proin.vel.arcu@hotmail.net,774-565 Eget St.,Kansas,South Korea,1
Octavius Rhodes,(482) 822-8651,dolor@outlook.edu,5574 Lacus. St.,Bangsamoro,Italy,1
Macaulay Gay,1-142-969-0327,lectus.cum.sociis@protonmail.net,Ap #877-5007 Lorem St.,Campania,Germany,2
Tarik Colon,(565) 525-8084,vel.convallis.in@hotmail.couk,Ap #348-6701 Erat St.,Oyo,Belgium,4
"Ulric Rosario,1-288-644-0724,velit@aol.net,""P.O. Box 522, 4621 Et Av."",Hải Phòng,South Africa,9"
Quinn Weber,1-896-711-4456,phasellus.libero@icloud.com,Ap #708-3338 Lacus. Av.,Stockholms län,United Kingdom,1
Thor Riddle,1-639-761-7927,nunc.sed.orci@yahoo.org,665-9322 Lacus. St.,Abruzzo,Singapore,8
Moses Guzman,(896) 971-3878,facilisis.facilisis@aol.couk,578-2291 Orci. Ave,Rogaland,Poland,8
Sage Mercado,1-823-976-8876,dapibus.gravida@aol.org,266-7219 Lacus. Street,Bremen,Australia,6
Maxine Vang,(671) 509-7357,gravida.praesent.eu@icloud.ca,Ap #331-4364 Malesuada Avenue,Papua,Canada,10
Keaton Landry,(587) 796-8937,ligula.aliquam.erat@aol.org,Ap #352-490 Tincidunt Avenue,Berlin,Indonesia,2
Kibo Gallegos,(843) 835-6199,amet@protonmail.com,5470 Rutrum. Av.,Zamboanga Peninsula,Norway,7
Odysseus Peck,1-231-665-6854,vitae.diam.proin@protonmail.couk,6785 Quam Avenue,North Gyeongsang,Poland,2
"Jescie Mejia,1-727-351-0981,purus.gravida.sagittis@hotmail.com,""P.O. Box 875, 8267 Erat St."",Languedoc-Roussillon,Norway,5"
"Reece Barlow,1-332-576-1143,quam.elementum.at@yahoo.net,""550-8766 Purus, Av."",Chernivtsi oblast,Mexico,6"
Craig Mack,(936) 278-6681,interdum.sed@yahoo.org,8959 Elit Avenue,Tarapacá,Norway,1
Jennifer Giles,(233) 215-4684,ante@icloud.ca,227-2406 Elit Ave,Niedersachsen,Nigeria,2
Whitney Hamilton,(955) 408-8237,phasellus.elit.pede@protonmail.couk,257-6900 Nullam St.,Mpumalanga,United States,2
Jessamine Sykes,1-671-853-5876,etiam.laoreet.libero@aol.com,Ap #224-745 Aenean Av.,Ryazan Oblast,Mexico,5
Hillary Travis,(361) 290-4315,ut.sem@aol.couk,Ap #588-519 Curabitur Rd.,Niedersachsen,United Kingdom,8
Anthony Lindsay,(525) 808-3868,tempor.bibendum@hotmail.net,Ap #293-4307 Auctor Avenue,Tây Ninh,South Africa,8
"Wylie Parker,(937) 334-8640,velit.quisque@protonmail.ca,""642-4261 Lorem, St."",Tamaulipas,Ireland,9"
"Warren Mcfarland,1-503-544-2712,euismod.et@google.ca,""630-7112 Orci, St."",Upper Austria,Austria,9"
Lesley Oliver,(344) 262-9244,cubilia.curae@protonmail.edu,Ap #205-1435 Suspendisse St.,Donetsk oblast,Nigeria,2
Dillon Myers,(126) 574-1879,egestas.lacinia@yahoo.org,244-8385 Convallis Ave,Vorarlberg,Belgium,10
Jamal Burgess,(986) 422-3145,aliquam.gravida@hotmail.couk,214-1292 Nunc Av.,Moscow City,China,6
Raja Holland,1-940-606-7466,quam@outlook.couk,538-9617 Consectetuer Rd.,Bourgogne,United States,6
Talon Conner,1-977-362-1120,pede@yahoo.couk,Ap #961-1122 Quisque Rd.,Dōngběi,Italy,5
Hayley Garrison,1-587-824-8620,imperdiet.nec.leo@icloud.ca,Ap #763-9522 Sodales St.,Connacht,Canada,10
Yen Gay,(433) 303-1331,nulla.dignissim@google.couk,Ap #363-5064 Adipiscing Av.,Puntarenas,Vietnam,3
Ashton Bryant,1-449-681-0689,malesuada.vel@outlook.edu,762-414 Ac Av.,Lambayeque,South Korea,9
Gil Sykes,1-744-945-1376,arcu.morbi.sit@google.couk,Ap #568-2839 Morbi Street,Anambra,New Zealand,9
Linda Carroll,1-252-138-7343,at@hotmail.couk,887-2206 Et Avenue,Lubuskie,Vietnam,5
Barry Sutton,(642) 496-5782,nisi.aenean@yahoo.edu,545-7433 Nec Road,Upper Austria,Sweden,1
Talon Slater,1-644-788-3740,feugiat@aol.org,Ap #143-1801 Nunc Avenue,Tasmania,Brazil,3
Mary Berger,(861) 218-1917,taciti.sociosqu@google.net,647-7022 Dignissim. Rd.,Utah,Ireland,8
Karen Raymond,(412) 577-4105,dignissim.lacus@aol.com,5641 Vel Rd.,Baden Württemberg,Mexico,4
Aphrodite Pickett,(883) 325-2723,leo.in.lobortis@outlook.ca,4640 Sollicitudin Avenue,Tennessee,South Korea,9
Rooney Smith,(235) 133-2810,pellentesque.massa.lobortis@protonmail.couk,Ap #471-9169 Fames Street,San José,Philippines,6
"Selma Bridges,1-272-797-3828,hendrerit@icloud.com,""Ap #355-2967 Nec, St."",Glamorgan,New Zealand,5"
Serena Hall,1-455-436-1874,odio@outlook.com,807-4855 Ipsum Street,Gävleborgs län,Austria,3
Paki Olson,1-215-647-8677,dictum@aol.net,Ap #247-5522 Fringilla Road,Los Ríos,Ukraine,9
Aileen Lyons,(144) 512-9237,mus.proin@google.com,3832 Condimentum. Rd.,South Island,Netherlands,6
Deirdre Burns,(757) 835-1533,neque.in.ornare@yahoo.com,7923 Imperdiet Road,Xīběi,Indonesia,7
Iris Mcdowell,1-267-956-8327,risus.duis@icloud.com,540-5367 Dolor Ave,Manitoba,Peru,6
Althea Rice,1-322-284-4304,penatibus.et@protonmail.org,Ap #544-2545 Justo Road,Guanacaste,Philippines,1
Imelda Porter,(401) 555-2084,tristique@aol.ca,830-5959 Ac Road,Saarland,Costa Rica,2
Judith Chaney,(112) 124-4181,ante.maecenas@outlook.ca,385-6973 Erat Rd.,Mpumalanga,Germany,1
Kyra Rocha,(157) 345-3066,magnis@outlook.edu,Ap #536-7076 Integer Av.,Tarapacá,Turkey,3
Salvador Harding,1-211-186-3613,facilisis.non@protonmail.ca,Ap #623-8404 Luctus St.,Ulster,South Korea,8
Sage Guerra,(697) 233-6355,lorem.sit@protonmail.org,Ap #863-3304 Sed Road,Anambra,Ukraine,10
"Zahir Brock,1-108-627-2770,lorem.ipsum@icloud.com,""P.O. Box 438, 3745 Cras Street"",Chernihiv oblast,Pakistan,9"
"Alfonso Chaney,(912) 553-2434,et.magnis@outlook.couk,""319-4916 Montes, St."",La Rioja,South Africa,2"
Nevada Page,(604) 145-2685,quis.diam@yahoo.couk,Ap #815-2891 Lobortis Road,Northern Cape,Chile,5
"Vernon Richmond,(684) 788-5698,penatibus.et@google.edu,""8906 A, Rd."",Diyarbakır,Poland,10"
Kirby Ray,(741) 480-2554,malesuada.ut@outlook.com,Ap #709-6745 Fermentum Rd.,Mykolaiv oblast,Costa Rica,2
Amal Wilkerson,1-877-555-7337,ut@yahoo.net,6161 Interdum Road,Queensland,United Kingdom,1
Sonia Tran,1-305-762-9636,vitae.orci.phasellus@protonmail.com,4089 Pellentesque Av.,Munster,Turkey,10
Kane Valentine,1-434-354-2668,diam@protonmail.ca,Ap #398-9375 Tellus Avenue,Dnipropetrovsk oblast,Mexico,4
Demetrius Haynes,(746) 115-6207,non.egestas@outlook.couk,5515 Eu St.,Jönköpings län,Poland,1
Selma Watkins,1-395-852-6859,adipiscing.lobortis@aol.ca,Ap #546-1809 Ut St.,North Gyeongsang,Austria,4
"Gay Morton,(156) 247-8450,scelerisque.mollis@aol.edu,""P.O. Box 271, 7843 Magna, Avenue"",Querétaro,Turkey,9"
Lois Small,(377) 164-6562,fringilla.euismod@hotmail.edu,Ap #597-6332 Sapien. Ave,Newfoundland and Labrador,Philippines,9
Igor Phelps,1-301-342-2062,nam@icloud.ca,936-833 Laoreet Rd.,Western Visayas,Philippines,10
"Dalton Arnold,1-926-215-5996,faucibus@hotmail.ca,""398-6295 Orci, Rd."",Punjab,Singapore,6"
Madeline Hawkins,(655) 489-5460,amet.faucibus@aol.couk,Ap #639-8125 Ac Road,Paraíba,South Korea,6
Hasad Dickerson,1-271-503-9127,ipsum.nunc.id@outlook.com,524-3842 Facilisi. Ave,Podlaskie,Peru,3
"Hayden Foley,1-590-308-6507,est.mauris@protonmail.com,""P.O. Box 362, 7305 Nec, Road"",National Capital Region,New Zealand,9"
Cathleen Goodman,1-373-874-1364,arcu@google.com,420-4046 Lorem Rd.,Munster,Poland,2
Remedios Kline,(681) 525-3652,quam@protonmail.ca,232-2069 Vitae St.,Caraga,Indonesia,10
Lana Hodge,1-376-887-5502,ipsum.suspendisse@protonmail.couk,440-1938 Quisque Av.,Luik,United Kingdom,3
Kelsie Booker,(620) 434-4146,dolor.fusce.mi@icloud.com,8322 Sodales. Rd.,Voronezh Oblast,Chile,6
"Ferris Castaneda,(161) 848-8431,lectus.justo@aol.ca,""P.O. Box 929, 8968 Fermentum St."",Luxemburg,Nigeria,3"
Alma Hughes,1-645-466-8561,a@yahoo.edu,259-371 Lacus. St.,Norte de Santander,Russian Federation,3
Keaton William,(619) 894-2963,ac.orci@aol.ca,6262 Ac Road,Basilicata,Sweden,2
Courtney Mitchell,1-151-423-3174,ac@outlook.com,3349 Orci. St.,Luhansk oblast,Mexico,6
Kevin Odom,1-385-448-7216,dui.augue.eu@hotmail.couk,457-7853 Malesuada St.,Zeeland,Colombia,10
"Cadman Hopkins,(726) 874-5564,convallis.dolor.quisque@outlook.edu,""P.O. Box 395, 9222 Vulputate Road"",Sindh,Spain,2"
Flynn Dunlap,(560) 688-1096,interdum.sed@google.net,Ap #635-315 Leo. Avenue,Brussels Hoofdstedelijk Gewest,Chile,2
Acton Hahn,1-945-753-8486,luctus@hotmail.net,161-6721 Ligula. St.,California,Philippines,3
"Kirestin Leonard,(557) 688-8544,vitae@protonmail.net,""P.O. Box 280, 7379 Dictum Avenue"",Burgenland,Canada,5"
Petra Leach,(279) 798-4686,dolor.nonummy@yahoo.com,Ap #459-4590 Nisi Ave,Coahuila,Belgium,4
"Juliet Short,1-615-891-6278,tristique@aol.couk,""P.O. Box 823, 8628 Nullam St."",Vienna,Costa Rica,3"
Amaya Mueller,1-724-671-0715,at.arcu@outlook.ca,298-9070 Tempor Road,Pskov Oblast,Vietnam,1
"Katelyn Stokes,1-667-620-9161,malesuada@protonmail.edu,""487-336 In, Avenue"",South Australia,Poland,0"
Lucy Myers,(453) 665-6556,in.faucibus@outlook.edu,Ap #469-602 Neque Rd.,Extremadura,Norway,5
Drake Manning,(493) 541-2096,arcu.vel.quam@icloud.org,5884 Nulla St.,Cà Mau,Norway,0
Vladimir Delacruz,(468) 472-3388,lobortis.ultrices@hotmail.ca,939-1750 Malesuada St.,Cantabria,Germany,1
Kyra Juarez,(407) 563-2882,ut.molestie@icloud.net,111-1420 Odio Rd.,Friesland,Turkey,5
Zahir Hendrix,(846) 582-3728,tristique.aliquet@aol.org,522-2632 Ut St.,San José,Mexico,4
Quynn Stark,(743) 624-6647,metus.facilisis@aol.edu,Ap #824-942 Fermentum Rd.,Dolnośląskie,United Kingdom,9
Tad Schultz,(746) 788-8625,dignissim.maecenas@outlook.edu,357-937 Commodo Street,Minnesota,United Kingdom,6
Blossom Dalton,1-824-265-3754,magna.nam@outlook.edu,513-7979 Sit St.,Agder,Philippines,4
Michelle Bentley,(658) 181-6173,eget@protonmail.net,147 Metus Ave,Cartago,Belgium,5
Hoyt Carrillo,(512) 858-3795,sed.facilisis.vitae@icloud.couk,Ap #523-6362 In Rd.,Flevoland,Poland,9
"Iliana Olson,(662) 477-7178,consequat.purus@icloud.ca,""P.O. Box 431, 8420 Iaculis, Rd."",Murcia,Colombia,1"
"Richard Harrell,(725) 272-8847,amet.ornare.lectus@google.com,""P.O. Box 509, 4555 Proin Street"",Los Lagos,Ukraine,9"
"Lewis Golden,1-244-849-4600,purus.mauris@aol.org,""P.O. Box 520, 7653 Vitae St."",North Region,India,10"
Kimberly Glover,1-779-437-6278,varius@protonmail.net,Ap #127-1524 Mus. Av.,Östergötlands län,Russian Federation,2
Amal Schultz,(386) 476-2788,egestas.urna@hotmail.couk,Ap #179-2182 Justo St.,Ternopil oblast,Indonesia,9
"Walker Kerr,1-587-173-2668,magnis@protonmail.ca,""2907 Est, Ave"",Opolskie,Indonesia,0"
Shelley Gillespie,(324) 698-2440,semper.cursus.integer@aol.org,Ap #293-5622 Dignissim Rd.,North Island,Russian Federation,9
Norman Whitney,(446) 744-6254,aliquam.ultrices.iaculis@protonmail.com,Ap #120-6971 Consectetuer St.,KwaZulu-Natal,Chile,7
Barry Harrison,(299) 458-2509,molestie@outlook.couk,Ap #796-7333 Tellus. Road,Sindh,Netherlands,2
Drew Johnson,1-343-735-5700,quisque.ornare@yahoo.ca,Ap #328-9097 Elit Rd.,North Island,New Zealand,6
Rachel Wilcox,1-704-977-8663,sed.nunc@icloud.edu,4479 Facilisis Rd.,Western Australia,Sweden,2
Veda Bauer,1-342-488-7395,pellentesque.habitant@protonmail.couk,701-9436 Neque Ave,Stockholms län,Philippines,8
Jennifer Adams,(748) 858-3750,gravida.sit@protonmail.net,Ap #403-9382 Ipsum Av.,Abruzzo,Australia,2
Honorato Noble,(547) 497-9380,dictum@outlook.couk,Ap #476-7926 Odio Avenue,Kostroma Oblast,India,4
Burke Pacheco,1-490-665-8679,vitae.nibh@google.couk,5947 Tincidunt St.,Phú Yên,Austria,3
"Yael Espinoza,(765) 478-2236,a.neque@hotmail.edu,""P.O. Box 137, 7392 Nec, Avenue"",Tula Oblast,Singapore,6"
Nyssa Bird,(892) 614-1373,et.arcu@protonmail.org,Ap #161-2295 Volutpat. Ave,Bến Tre,United Kingdom,8
Keiko Lowe,(537) 279-1619,lorem.ipsum@icloud.org,343-7575 Odio. Rd.,KwaZulu-Natal,Austria,8
Drake Rush,(215) 908-2486,ornare.elit.elit@yahoo.com,Ap #447-7640 Morbi Av.,Gyeonggi,Poland,2
Chaim Stevens,1-825-476-1968,montes.nascetur@protonmail.edu,Ap #457-1903 Phasellus Ave,Guaviare,Mexico,3
Pascale Shannon,(869) 771-3376,dui.nec@outlook.org,7474 Nulla Rd.,Flevoland,Ukraine,1
Rashad Craig,1-482-209-7664,gravida@icloud.com,260-1645 Nullam Rd.,Suffolk,Poland,3
Graiden Houston,(824) 542-5879,vestibulum.accumsan@icloud.couk,Ap #951-648 Donec Ave,Northwest Territories,South Africa,5
Odysseus Merrill,(383) 963-8059,lorem@icloud.com,Ap #777-6507 Metus. Av.,West-Vlaanderen,Russian Federation,3
"Mechelle Henson,1-458-457-5826,cubilia.curae@icloud.ca,""P.O. Box 106, 5264 Primis Ave"",Pará,Italy,10"
"Tatiana Castro,(431) 427-3268,nec.diam.duis@aol.ca,""P.O. Box 774, 1339 Lacinia Avenue"",Ontario,Netherlands,9"
Jakeem Justice,(594) 482-2287,non.massa@outlook.couk,529-4747 Donec Ave,Amazonas,Philippines,2
Silas Whitehead,1-539-488-3877,pellentesque.habitant.morbi@outlook.org,Ap #158-2046 Nunc Rd.,Sevastopol City,Peru,7
"Arsenio Pace,(644) 279-3232,sagittis.lobortis@hotmail.com,""P.O. Box 765, 7273 Sem St."",Brandenburg,Russian Federation,5"
"Kathleen Velazquez,(297) 412-1581,amet@google.org,""P.O. Box 970, 5024 Scelerisque St."",Pondicherry,Brazil,5"
Hedwig Rowe,1-520-547-6805,urna.vivamus@google.org,8013 Porttitor Avenue,Cartago,Italy,4
Rashad York,1-485-271-2736,diam.vel@aol.net,Ap #747-1350 Auctor Rd.,Basse-Normandie,Peru,8
"Madonna Le,1-383-578-1407,in.at@protonmail.net,""P.O. Box 697, 1506 Donec Avenue"",East Region,United States,9"
Amal Mcconnell,1-823-246-6779,nam.interdum@yahoo.couk,Ap #738-3994 Quam St.,Hatay,Canada,4
Fulton Copeland,(257) 315-4381,ipsum.non@hotmail.net,502-4830 Posuere Avenue,Free State,Germany,10
Gary Rodriquez,1-101-257-4354,arcu.sed@yahoo.edu,870-9637 Tempor Road,South Island,Ireland,5
Nita Moss,1-783-226-7835,eu.odio.phasellus@outlook.org,Ap #374-7190 Adipiscing. St.,Minas Gerais,Ireland,9
Gil Higgins,(478) 259-1638,urna.convallis@hotmail.com,8623 Risus. Rd.,South Sulawesi,Netherlands,9
Cathleen Dotson,(865) 684-6700,malesuada.augue@aol.couk,Ap #939-2936 Dolor Rd.,Xīběi,Ireland,3
Cullen Mcbride,(445) 749-3467,eu.odio@yahoo.com,Ap #498-1042 Nunc Rd.,Puebla,Philippines,8
Peter Parker,(842) 514-2257,quisque.fringilla.euismod@outlook.edu,Ap #856-5906 At Rd.,Hải Dương,Austria,8
"Erin Aguirre,(736) 728-7527,semper@aol.org,""820-3845 Vulputate, Avenue"",Swiętokrzyskie,Netherlands,5"
Hashim Mejia,1-468-298-8872,tempus@hotmail.ca,Ap #367-2653 Ligula. St.,Voronezh Oblast,Brazil,5
Portia Cantrell,(625) 838-3842,in.consequat.enim@hotmail.edu,225 Morbi St.,Dorset,Vietnam,3
"Kane Mcgowan,1-545-101-7056,vulputate.velit.eu@google.com,""P.O. Box 860, 3279 Lobortis Rd."",Jeju,Singapore,4"
Hermione Shaw,(648) 862-5517,at@protonmail.ca,Ap #349-782 Netus Av.,São Paulo,Austria,4
"Sharon Ford,1-977-459-4631,fusce.aliquet@protonmail.edu,""P.O. Box 860, 4006 Donec Rd."",Extremadura,Mexico,9"
"Bree Orr,(450) 153-7495,pulvinar.arcu@yahoo.edu,""248-9904 Quam, Avenue"",Ulster,Brazil,0"
Martin Price,(527) 783-1032,lorem.ipsum@yahoo.ca,869-229 Mattis. Rd.,Biobío,China,3
Karly Adkins,(345) 414-7848,eget.lacus@protonmail.edu,Ap #700-1259 Quam St.,Maharastra,Belgium,3
Ciara Guy,1-720-384-1222,rutrum.urna@protonmail.couk,Ap #644-670 Mi Avenue,Hatay,Turkey,9
"Preston Frazier,(190) 814-0642,mauris@yahoo.ca,""P.O. Box 409, 7427 Ultricies Avenue"",Agder,New Zealand,8"
"Erica Rhodes,1-762-234-8553,lobortis.mauris.suspendisse@outlook.couk,""Ap #387-5751 Lorem, St."",Huáběi,Germany,10"
Grant Potts,(783) 363-6908,nec.malesuada@google.couk,736-3984 Aenean Av.,Texas,United States,5
"Hadley Puckett,1-840-172-7963,mi.ac@google.couk,""Ap #884-5823 Rutrum, Rd."",Ninh Bình,Italy,9"
"Quail Robbins,1-846-865-6176,sociis.natoque.penatibus@outlook.edu,""P.O. Box 555, 3541 Odio. St."",Quảng Bình,New Zealand,5"
Ella Dickson,(285) 356-2980,ipsum.non@outlook.net,Ap #734-9540 Phasellus Ave,Central Luzon,Nigeria,2
"Cade Jennings,1-836-106-6346,iaculis.aliquet.diam@aol.net,""P.O. Box 309, 5644 Donec Ave"",Lombardia,Philippines,2"
Keane Whitley,1-817-517-6706,tellus.id.nunc@hotmail.edu,9617 Nulla St.,Mizoram,India,1
Eaton Roberson,(924) 362-0402,maecenas.ornare@outlook.net,Ap #570-8678 In Ave,San José,France,2
Nigel Reynolds,(274) 552-5452,luctus.lobortis@aol.edu,Ap #534-3992 Ipsum Avenue,Alajuela,Philippines,10
Michael Battle,(655) 417-6384,nam.porttitor@yahoo.com,Ap #597-632 Risus Street,Yorkshire,South Africa,10
Jaden Lynn,(911) 342-1537,nullam.ut.nisi@icloud.org,7078 Nibh Street,Huádōng,Russian Federation,7
Isaac Juarez,(364) 708-2344,velit.egestas@yahoo.couk,659-8925 Vitae Avenue,Limburg,Nigeria,4
Lenore Snow,1-564-325-3282,ligula.elit@outlook.ca,3423 Velit Rd.,Moscow Oblast,Ireland,3
Dalton Hays,1-424-600-9476,consequat.purus.maecenas@hotmail.com,755-1782 Interdum Avenue,West Papua,Ireland,7
Bevis Nielsen,1-646-635-7136,purus.duis@protonmail.net,936-5253 Ac Av.,North Region,Spain,2
"Nadine Velez,1-128-937-3762,commodo.hendrerit.donec@protonmail.net,""P.O. Box 966, 5186 Nascetur Street"",Flevoland,China,2"
"Preston Hooper,(517) 533-8598,pellentesque.habitant.morbi@protonmail.couk,""P.O. Box 793, 6617 Molestie Rd."",Brandenburg,Norway,4"
Wesley Erickson,1-698-582-2804,lorem.fringilla@protonmail.net,945-3943 Consectetuer Rd.,Aydın,Nigeria,6
Carly Vang,1-883-820-0917,pede.blandit.congue@aol.net,463-7794 Phasellus St.,Riau Islands,Ukraine,9
Mollie Stephenson,(624) 865-2736,sed@hotmail.org,Ap #268-6756 Nec Road,Zeeland,Australia,10
"Christian Freeman,1-591-114-5117,magna@outlook.couk,""604-5977 Eu, Road"",Munster,Ukraine,9"
"Nash David,1-524-188-6301,odio@icloud.couk,""Ap #172-7853 Mauris, Ave"",Rio de Janeiro,New Zealand,3"
Mari Campos,1-129-457-2661,dui.fusce.aliquam@google.edu,Ap #219-6884 Donec St.,Gävleborgs län,Italy,3
Kiona Bishop,(135) 724-8048,facilisis.facilisis@yahoo.org,Ap #103-6437 Sed Rd.,East Region,Colombia,0
Lester Wolfe,1-432-359-3327,nibh.dolor.nonummy@aol.edu,Ap #527-371 Diam. St.,Cheshire,Australia,7
Jesse Ashley,(235) 937-2417,eu.odio.tristique@yahoo.net,Ap #252-1266 Nibh. Av.,Tasmania,India,5
Drew Gibson,(530) 443-0136,scelerisque.mollis@yahoo.net,Ap #219-3557 Auctor Street,West-Vlaanderen,Russian Federation,1
"Chester O'donnell,1-971-666-5922,eu@icloud.org,""P.O. Box 289, 9394 Bibendum. Av."",Victoria,Austria,3"
"Cailin Owens,1-516-196-1324,adipiscing.fringilla.porttitor@protonmail.com,""Ap #910-2892 Tortor, Street"",KwaZulu-Natal,Germany,4"
Chava Mccarthy,1-623-216-1922,dictum.cursus.nunc@aol.ca,1694 Eros. Avenue,West Bengal,United States,2
Matthew Silva,1-513-214-3738,arcu.curabitur@protonmail.ca,1198 Erat Rd.,Michoacán,Indonesia,2
Aretha Fisher,1-371-231-8222,egestas.fusce@yahoo.net,Ap #137-8981 Eros. Rd.,Nova Scotia,Italy,4
Joy Huff,1-304-765-3780,dictum@yahoo.couk,Ap #874-8788 Egestas St.,Valle del Cauca,Mexico,6
Jasmine Farley,1-538-413-1621,a@google.edu,831-6638 Magna. Rd.,Galicia,Poland,1
"Channing Henry,1-861-226-5926,bibendum.fermentum@icloud.edu,""P.O. Box 331, 2797 Fermentum Road"",Liguria,China,5"
Kirestin Sargent,(240) 925-9739,pede@hotmail.org,883-2478 Lorem Road,Lubuskie,Ireland,6
"Nehru Morgan,1-672-715-5718,orci.luctus.et@outlook.org,""P.O. Box 213, 6780 Aliquam Rd."",Lambayeque,Philippines,2"
Denton Huber,1-372-355-8540,sit@aol.edu,5061 Suspendisse Ave,Brussels Hoofdstedelijk Gewest,Canada,5
"Leandra Tillman,1-550-345-5982,eu.dui@hotmail.edu,""P.O. Box 621, 8960 Blandit. Av."",Cajamarca,Netherlands,6"
"May Meyer,1-202-836-6644,lorem.luctus@google.com,""824-8177 Placerat, Rd."",South Island,Poland,5"
Adrian Flores,1-536-647-8480,nulla.interdum.curabitur@hotmail.edu,681 Rutrum Street,Lipetsk Oblast,China,10
Edan Avila,1-313-888-7452,natoque.penatibus.et@aol.net,Ap #327-697 Aliquet Road,Ulster,Sweden,0
Hayley Fowler,(446) 927-6731,vel.quam@icloud.ca,502-6063 Phasellus Rd.,Guanajuato,Spain,1
Eleanor Leach,(757) 812-4763,vel.mauris@google.net,462-659 Phasellus Av.,Southwestern Tagalog Region,Italy,6
"Cameran Kirby,(737) 245-4623,vulputate.ullamcorper@yahoo.org,""Ap #893-5299 A, Rd."",South Gyeongsang,Norway,1"
Inez Knowles,1-456-437-4583,lectus@yahoo.com,106-6543 Magna Rd.,Puebla,Norway,4
